CAS-2T & KS-1Q          
1 41847U 16066G   21093.40784052  .00000171  00000-0  34986-4 0  9991
2 41847  98.6103 152.1940 0366456  84.4163 279.8691 14.38169389231090
NAYIF-1 (EO-88)         
1 42017U 17008BX  21093.44696173  .00002917  00000-0  11015-3 0  9995
2 42017  97.3222 162.3844 0006547  30.6124 329.5496 15.27788827229801
ZHUHAI-1 02 (CAS-4B)    
1 42759U 17034B   21093.48656759  .00000399  00000-0  37395-4 0  9999
2 42759  43.0173 233.2013 0008478  47.0167  24.0070 15.10138528209810
ZHUHAI-1 01 (CAS-4A)    
1 42761U 17034D   21093.48932434  .00000393  00000-0  36960-4 0  9990
2 42761  43.0173 232.2917 0008821  48.9649  63.6609 15.10219734209818
MAX VALIER SAT          
1 42778U 17036P   21092.70551798  .00001581  00000-0  69240-4 0  9991
2 42778  97.2648 143.7720 0013754  85.3270 274.9538 15.23371566209755
RADFXSAT (FOX-1B)       
1 43017U 17073E   21092.72052445  .00000596  00000-0  51351-4 0  9995
2 43017  97.7121 359.7000 0255151 187.1236 172.6325 14.79412023181925
FOX-1D (AO-92)          
1 43137U 18004AC  21093.47188568  .00001927  00000-0  80028-4 0  9994
2 43137  97.4117 168.2647 0010449 112.2716 247.9631 15.24998171179221
DIWATA-2B               
1 43678U 18084H   21093.52851156  .00000325  00000-0  37998-4 0  9997
2 43678  97.9104 218.4740 0008769 304.3708  55.6663 14.91729340132266
ES'HAIL 2               
1 43700U 18090A   21092.83892640  .00000129  00000-0  00000-0 0  9998
2 43700   0.0105 139.0129 0002771 273.8227 106.3498  1.00272910  8613
FOX-1CLIFF (AO-95)      
1 43770U 18099N   21093.16690571  .00000159  00000-0  19658-4 0  9996
2 43770  97.6710 164.9985 0013320 313.7100  46.3017 14.95250132127204
ITASAT 1                
1 43786U 18099AE  21093.43566832  .00000046  00000-0  92925-5 0  9999
2 43786  97.6729 165.8873 0013868 305.1555  54.8366 14.95554593127279
JY1SAT (JO-97)          
1 43803U 18099AX  21093.14394605  .00000973  00000-0  92208-4 0  9996
2 43803  97.6690 165.3631 0013618 305.8459  54.1497 14.95783750127239
UWE-4                   
1 43880U 18111E   21093.37866852  .00000235  00000-0  25549-4 0  9994
2 43880  97.6916   2.3788 0012500   3.4410 356.6895 14.96790223121853
PSAT2 (NO-104)          
1 44354U 19036R   21092.82513584  .00023401  00000-0  31739-3 0  9995
2 44354  28.5286 270.5628 0333089 177.1119 183.1481 15.11519385 97513
BRICSAT2 (NO-103)       
1 44355U 19036S   21093.46685987  .00039894  00000-0  46273-3 0  9996
2 44355  28.5264 232.4935 0279784 239.1569 118.1219 15.25299086 97949
JAISAT-1                
1 44419U 19038F   21092.87985973  .00001523  00000-0  88363-4 0  9996
2 44419  97.5807  57.9106 0020201 209.1483 150.8622 15.13546484 96369
DUCHIFAT-3              
1 44854U 19089C   21093.34597432  .00000755  00000-0  66808-4 0  9993
2 44854  36.9648 184.7735 0008725 258.6518 101.3266 14.99406166 71828
RS-44 & BREEZE-KM R/B   
1 44909U 19096E   21092.71151724  .00000022  00000-0  51175-4 0  9990
2 44909  82.5236 163.1398 0216185 270.1763  87.4568 12.79709277 59153
ORBITAL FACTORY 2 (OF-2)
1 45113U 19071C   21092.84465324  .00004334  00000-0  13568-3 0  9992
2 45113  51.6434  43.9611 0012530  23.4943 336.6610 15.35202841 65556
HUSKYSAT-1 (HO-107)     
1 45119U 19071J   21092.85834891  .00004949  00000-0  15304-3 0  9990
2 45119  51.6430  43.3000 0011825  20.2075 339.9374 15.35273690 65554
BY70-2                  
1 45857U 20042B   21093.44351678  .00001410  00000-0  20796-3 0  9993
2 45857  97.9863 169.9720 0012948  98.1292 262.1389 14.76818414 40472
SALSAT                  
1 46495U 20068K   21092.58699129 -.00000061  00000-0  99758-7 0  9990
2 46495  97.6865  30.5607 0016893 334.3261  25.7104 15.03384678 27936
BY70-3                  
1 46839U 20079N   21093.47620883  .00003745  00000-0  11914-3 0  9999
2 46839  97.2450 168.8285 0008946 111.8085  15.9562 15.33175124 22710
RADFXSAT-2 (AO-109)     
1 47311U 21002C   21093.31269010  .00001229  00000-0  66035-4 0  9996
2 47311  60.6873 212.4287 0024386   3.8968 356.2303 15.21421893 11449
UVSQ-SAT                
1 47438U 21006AB  21093.45260388  .00001150  00000-0  68802-4 0  9991
2 47438  97.4955 155.9954 0012711   4.8441 355.2911 15.12969586 10715
